{
  "type": "FeatureCollection",
  "features": [
    {
      "type": "Feature",
      "properties": {
        "norad_id": 44873,
        "name": "CSG-1",
        "group": "resource",
        "lat": -50.145735745643584,
        "lon": -20.996959713185017,
        "alt_km": 630.2793015919788,
        "timestamp": "2025-12-13T05:42:57.154877+00:00",
        "meta_object_name": "CSG-1",
        "meta_object_id": "2019-092A",
        "meta_epoch": "2025-12-12T07:36:53.912160",
        "meta_mean_motion": 14.82163627,
        "meta_eccentricity": 0.00014414,
        "meta_inclination": 97.881,
        "meta_ra_of_asc_node": 167.6478,
        "meta_arg_of_pericenter": 84.9544,
        "meta_mean_anomaly": 275.1833,
        "meta_ephemeris_type": 0,
        "meta_classification_type": "U",
        "meta_norad_cat_id": 44873,
        "meta_element_set_no": 999,
        "meta_rev_at_epoch": 32379,
        "meta_bstar": 0.00013576561,
        "meta_mean_motion_dot": 1.029e-05,
        "meta_mean_motion_ddot": 0,
        "tle_line1": "1 44873U 19092A   25346.31729065  .00001029  00000+0  13577-3 0  9997",
        "tle_line2": "2 44873  97.8810 167.6478 0001441  84.9544 275.1833 14.82163627323797"
      },
      "geometry": {
        "type": "Point",
        "coordinates": [
          -20.996959713185017,
          -50.145735745643584
        ]
      }
    },
    {
      "type": "Feature",
      "properties": {
        "norad_id": 46277,
        "name": "NEMO-HD",
        "group": "resource",
        "lat": 45.76380492457692,
        "lon": -126.1878990014831,
        "alt_km": 440.9805565938168,
        "timestamp": "2025-12-13T05:42:57.154888+00:00",
        "meta_object_name": "NEMO-HD",
        "meta_object_id": "2020-061F",
        "meta_epoch": "2025-12-12T07:18:35.337024",
        "meta_mean_motion": 15.40312743,
        "meta_eccentricity": 0.00019051,
        "meta_inclination": 97.2213,
        "meta_ra_of_asc_node": 45.4078,
        "meta_arg_of_pericenter": 57.1976,
        "meta_mean_anomaly": 302.9453,
        "meta_ephemeris_type": 0,
        "meta_classification_type": "U",
        "meta_norad_cat_id": 46277,
        "meta_element_set_no": 999,
        "meta_rev_at_epoch": 29317,
        "meta_bstar": 0.00039165599,
        "meta_mean_motion_dot": 0.00015719,
        "meta_mean_motion_ddot": 0,
        "tle_line1": "1 46277U 20061F   25346.30457566  .00015719  00000+0  39166-3 0  9991",
        "tle_line2": "2 46277  97.2213  45.4078 0001905  57.1976 302.9453 15.40312743293178"
      },
      "geometry": {
        "type": "Point",
        "coordinates": [
          -126.1878990014831,
          45.76380492457692
        ]
      }
    },
    {
      "type": "Feature",
      "properties": {
        "norad_id": 46984,
        "name": "SENTINEL-6A",
        "group": "resource",
        "lat": -50.27210110568378,
        "lon": 13.622144965377741,
        "alt_km": 1338.6065860673225,
        "timestamp": "2025-12-13T05:42:57.154901+00:00",
        "meta_object_name": "SENTINEL-6A",
        "meta_object_id": "2020-086A",
        "meta_epoch": "2025-12-11T20:37:32.818368",
        "meta_mean_motion": 12.80930603,
        "meta_eccentricity": 0.0007741,
        "meta_inclination": 66.0388,
        "meta_ra_of_asc_node": 164.1366,
        "meta_arg_of_pericenter": 269.2307,
        "meta_mean_anomaly": 90.7821,
        "meta_ephemeris_type": 0,
        "meta_classification_type": "U",
        "meta_norad_cat_id": 46984,
        "meta_element_set_no": 999,
        "meta_rev_at_epoch": 23633,
        "meta_bstar": 0.00012281,
        "meta_mean_motion_dot": -3.3e-07,
        "meta_mean_motion_ddot": 0,
        "tle_line1": "1 46984U 20086A   25345.85940762 -.00000033  00000+0  12281-3 0  9990",
        "tle_line2": "2 46984  66.0388 164.1366 0007741 269.2307  90.7821 12.80930603236335"
      },
      "geometry": {
        "type": "Point",
        "coordinates": [
          13.622144965377741,
          -50.27210110568378
        ]
      }
    },
    {
      "type": "Feature",
      "properties": {
        "norad_id": 48079,
        "name": "GAOFEN-12 02",
        "group": "resource",
        "lat": 50.81504076469762,
        "lon": 171.15827488106942,
        "alt_km": 620.3688505223827,
        "timestamp": "2025-12-13T05:42:57.154912+00:00",
        "meta_object_name": "GAOFEN-12 02",
        "meta_object_id": "2021-026A",
        "meta_epoch": "2025-12-12T06:25:55.100640",
        "meta_mean_motion": 14.80674302,
        "meta_eccentricity": 0.00035334,
        "meta_inclination": 97.9852,
        "meta_ra_of_asc_node": 340.2767,
        "meta_arg_of_pericenter": 102.1969,
        "meta_mean_anomaly": 257.9639,
        "meta_ephemeris_type": 0,
        "meta_classification_type": "U",
        "meta_norad_cat_id": 48079,
        "meta_element_set_no": 999,
        "meta_rev_at_epoch": 25410,
        "meta_bstar": 0.00011770971,
        "meta_mean_motion_dot": 8.52e-06,
        "meta_mean_motion_ddot": 0,
        "tle_line1": "1 48079U 21026A   25346.26799885  .00000852  00000+0  11771-3 0  9997",
        "tle_line2": "2 48079  97.9852 340.2767 0003533 102.1969 257.9639 14.80674302254109"
      },
      "geometry": {
        "type": "Point",
        "coordinates": [
          171.15827488106942,
          50.81504076469762
        ]
      }
    },
    {
      "type": "Feature",
      "properties": {
        "norad_id": 48268,
        "name": "PLEIADES NEO 3",
        "group": "resource",
        "lat": -17.148315979012857,
        "lon": -122.78209200948864,
        "alt_km": 629.2518104218634,
        "timestamp": "2025-12-13T05:42:57.154923+00:00",
        "meta_object_name": "PLEIADES NEO 3",
        "meta_object_id": "2021-034A",
        "meta_epoch": "2025-12-12T07:45:31.028256",
        "meta_mean_motion": 14.81671609,
        "meta_eccentricity": 0.00014321,
        "meta_inclination": 97.8942,
        "meta_ra_of_asc_node": 58.7701,
        "meta_arg_of_pericenter": 95.6631,
        "meta_mean_anomaly": 264.4745,
        "meta_ephemeris_type": 0,
        "meta_classification_type": "U",
        "meta_norad_cat_id": 48268,
        "meta_element_set_no": 999,
        "meta_rev_at_epoch": 24998,
        "meta_bstar": 0.0002038166,
        "meta_mean_motion_dot": 1.552e-05,
        "meta_mean_motion_ddot": 0,
        "tle_line1": "1 48268U 21034A   25346.32327579  .00001552  00000+0  20382-3 0  9996",
        "tle_line2": "2 48268  97.8942  58.7701 0001432  95.6631 264.4745 14.81671609249984"
      },
      "geometry": {
        "type": "Point",
        "coordinates": [
          -122.78209200948864,
          -17.148315979012857
        ]
      }
    },
    {
      "type": "Feature",
      "properties": {
        "norad_id": 49070,
        "name": "PLEIADES NEO 4",
        "group": "resource",
        "lat": 16.95240239375807,
        "lon": 57.24373443528556,
        "alt_km": 624.3447631814643,
        "timestamp": "2025-12-13T05:42:57.154934+00:00",
        "meta_object_name": "PLEIADES NEO 4",
        "meta_object_id": "2021-073E",
        "meta_epoch": "2025-12-12T08:34:07.569120",
        "meta_mean_motion": 14.81676895,
        "meta_eccentricity": 0.00012379,
        "meta_inclination": 97.8941,
        "meta_ra_of_asc_node": 58.7994,
        "meta_arg_of_pericenter": 92.1719,
        "meta_mean_anomaly": 267.9635,
        "meta_ephemeris_type": 0,
        "meta_classification_type": "U",
        "meta_norad_cat_id": 49070,
        "meta_element_set_no": 999,
        "meta_rev_at_epoch": 23370,
        "meta_bstar": 3.8133e-06,
        "meta_mean_motion_dot": -2.2e-07,
        "meta_mean_motion_ddot": 0,
        "tle_line1": "1 49070U 21073E   25346.35703205 -.00000022  00000+0  38133-5 0  9995",
        "tle_line2": "2 49070  97.8941  58.7994 0001237  92.1719 267.9635 14.81676895233702"
      },
      "geometry": {
        "type": "Point",
        "coordinates": [
          57.24373443528556,
          16.95240239375807
        ]
      }
    },
    {
      "type": "Feature",
      "properties": {
        "norad_id": 49260,
        "name": "LANDSAT 9",
        "group": "resource",
        "lat": -10.147760388352413,
        "lon": 56.82260791075888,
        "alt_km": 706.8430041128931,
        "timestamp": "2025-12-13T05:42:57.154945+00:00",
        "meta_object_name": "LANDSAT 9",
        "meta_object_id": "2021-088A",
        "meta_epoch": "2025-12-12T05:02:29.593536",
        "meta_mean_motion": 14.57097277,
        "meta_eccentricity": 0.00011797,
        "meta_inclination": 98.2093,
        "meta_ra_of_asc_node": 54.3289,
        "meta_arg_of_pericenter": 88.7796,
        "meta_mean_anomaly": 271.3537,
        "meta_ephemeris_type": 0,
        "meta_classification_type": "U",
        "meta_norad_cat_id": 49260,
        "meta_element_set_no": 999,
        "meta_rev_at_epoch": 22377,
        "meta_bstar": 0.00017165995,
        "meta_mean_motion_dot": 7.28e-06,
        "meta_mean_motion_ddot": 0,
        "tle_line1": "1 49260U 21088A   25346.21006474  .00000728  00000+0  17166-3 0  9994",
        "tle_line2": "2 49260  98.2093  54.3289 0001179  88.7796 271.3537 14.57097277223776"
      },
      "geometry": {
        "type": "Point",
        "coordinates": [
          56.82260791075888,
          -10.147760388352413
        ]
      }
    }
  ]
}